pub mod us_metar_components;
pub mod world_metar;
pub mod parser;
pub mod taf_only_groups;
use crate::parser::*;
fn main() {
    parse_metar("KTKI 071653Z 20007KT 10SM CLR 35/18 A2999 RMK AO2 SLP147 T03500178");
    parse_metar("KORD 071651Z 11004KT 10SM SCT032 SCT200 OVC250 28/19 A3002 RMK AO2 SLP163 T02830194");
    parse_metar("KSEA 071653Z 24006KT 10SM FEW025 BKN070 BKN120 BKN200 19/12 A3005 RMK AO2 SLP180 T01890122");
    parse_metar("KPIA 071654Z 00000KT 2SM VCTS RA BR BKN009 OVC016 23/22 A3004 RMK AO2 LTG DSNT S TSB30E45 SLP167 P0017 T02280222");
    parse_metar("KDFW 011242Z 35022G28KT 1SM R17C/5500VP6000FT -SN BR SCT009 BKN017 OVC027 M06/M07 A2988 RMK AO2 PK WND 33040/1202 SFC VIS 1 3/4 PLE16 PRESFR");
    parse_metar("KTKI 071653Z 20007KT 190V210 1/4SM VV028 35/18 A2999 RMK AO2 SLP147 T03500178");
    parse_metar("EGGW 112250Z AUTO 20005KT 9999 NCD 21/12 Q1023");
    parse_metar("EDDF 112250Z 04004KT 360V060 CAVOK 16/12 Q1024 NOSIG");
    parse_metar("RJTT 112230Z 10004KT 050V140 9999 FEW005 SCT010 BKN/// 25/24 Q1008 NOSIG RMK 1CU005 3CU010 A2978");
    parse_metar("NZAA 112300Z AUTO 33008KT 290V360 9999 SCT017/// BKN070/// 16/16 Q1000 TEMPO 6000 SHRA");
    parse_metar("YSSY 112300Z 31007KT 9999 FEW030 BKN220 11/08 Q1018");
    parse_us_taf("KSEA 232037Z 2321/2424 29006KT P6SM BKN030
    FM232200 32005KT P6SM SCT050
    FM240300 35005KT P6SM SKC
    FM241400 VRB03KT P6SM SCT020
    FM241900 35008KT P6SM SKC");
    parse_us_taf("KMSP 232029Z 2320/2424 09011KT P6SM VCSH OVC100
    FM232200 11010KT P6SM SCT050 BKN100
    FM240200 32006KT P6SM BKN090
    FM241500 31011KT P6SM SCT250
    FM241600 31012G19KT P6SM FEW045 SCT250");
    parse_us_taf("KMOB 231736Z 2318/2418 21005KT P6SM VCTS SCT040CB BKN080
    TEMPO 2320/2323 VRB15G25KT 3SM TSRA BKN025CB
    FM240200 VRB03KT P6SM FEW025 SCT100
    FM241500 15006KT P6SM VCTS SCT030CB BKN100");
    parse_us_taf("KBUF 232103Z 2321/2418 24020G28KT P6SM FEW050 OVC250
    FM232300 23014G24KT P6SM FEW050 OVC250
    FM240100 22012KT P6SM BKN250
    FM241400 23014G24KT P6SM SCT040 BKN120
    FM241600 24018G32KT P6SM SCT040 BKN100");
    parse_us_taf("KDEN 232058Z 2321/2424 05012G24KT P6SM VCTS SCT080CB BKN110
    TEMPO 2322/2401 VRB25G38KT -TSRA BKN080CB
    FM240100 12010KT P6SM VCSH SCT090 BKN120
    TEMPO 2402/2406 VRB15G25KT
    FM240700 17010KT P6SM SCT100 BKN150
    FM241600 14011KT P6SM BKN090 OVC140
    FM242000 08012KT P6SM -SHRA BKN050 OVC090
    TEMPO 2422/2424 VRB18G32KT -TSRA BKN040CB");
}




